NORAD_CAT_ID,OBJECT_NAME,OBJECT_TYPE,EPOCH,MEAN_MOTION,ECCENTRICITY,INCLINATION,RA_OF_ASC_NODE,ARG_OF_PERICENTER,MEAN_ANOMALY,BSTAR,MEAN_MOTION_DOT,MEAN_MOTION_DDOT,TLE_LINE0,TLE_LINE1,TLE_LINE2,SEMIMAJOR_AXIS,PERIOD,APOGEE,PERIGEE,DECAYED
49142.0,STARLINK-3042,PAYLOAD,2022-09-14 04:43:56,14.96718218,0.0002803,70.0007,222.7139,261.1084,98.9757,-6.644e-05,-8.52e-06,0.0,0 STARLINK-3042,1 49142U 21082N   22257.19718465 -.00000852  00000-0 -66440-4 0  9993,2 49142  70.0007 222.7139 0002803 261.1084  98.9757 14.96718218 56369,6955.182,96.21,578.996,575.097,0.0
49142.0,STARLINK-3042,PAYLOAD,2022-09-14 07:56:25,14.96717186,0.0002884999999999,70.0007,222.3778,262.4155,97.6675,-7.0077e-05,-8.94e-06,0.0,0 STARLINK-3042,1 49142U 21082N   22257.33084894 -.00000894  00000-0 -70077-4 0  9998,2 49142  70.0007 222.3778 0002885 262.4155  97.6675 14.96717186 56387,6955.185,96.211,579.056,575.043,0.0
49142.0,STARLINK-3042,PAYLOAD,2022-09-14 20:46:19,14.967221,0.0002948999999999,69.9993,221.0335,261.4368,98.6456,0.00011838,1.264e-05,0.0,0 STARLINK-3042,1 49142U 21082N   22257.86550284  .00001264  00000-0  11838-3 0  9996,2 49142  69.9993 221.0335 0002949 261.4368  98.6456 14.96722100 56468,6955.17,96.21,579.086,574.984,0.0
49142.0,STARLINK-3042,PAYLOAD,2022-09-15 04:47:30,14.96724109,0.0002986,69.9994,220.193,262.0629,98.019,0.00013076,1.406e-05,0.0,0 STARLINK-3042,1 49142U 21082N   22258.19966108  .00001406  00000-0  13076-3 0  9993,2 49142  69.9994 220.1930 0002986 262.0629  98.0190 14.96724109 56514,6955.163000000001,96.21,579.105,574.952,0.0
49142.0,STARLINK-3042,PAYLOAD,2022-09-15 08:00:00,14.9671259,0.0002768,69.9994,219.8569,263.8375,96.2468,-9.4351e-06,-2e-06,0.0,0 STARLINK-3042,1 49142U 21082N   22258.33333507 -.00000200  00000-0 -94351-5 0  9990,2 49142  69.9994 219.8569 0002768 263.8375  96.2468 14.96712590 56533,6955.199000000001,96.211,578.989,575.139,0.0
49142.0,STARLINK-3042,PAYLOAD,2022-09-15 20:49:54,14.9671003,0.0002881999999999,69.9992,218.5122,261.9101,98.173,0.00010748,1.139e-05,0.0,0 STARLINK-3042,1 49142U 21082N   22258.86799133  .00001139  00000-0  10748-3 0  9995,2 49142  69.9992 218.5122 0002882 261.9101  98.1730 14.96710030 56614,6955.206999999999,96.211,579.077,575.068,0.0
49142.0,STARLINK-3042,PAYLOAD,2022-09-16 00:02:22,14.96711363,0.0002948,69.9991,218.176,261.08,99.0025,0.00013042,1.401e-05,0.0,0 STARLINK-3042,1 49142U 21082N   22259.00165454  .00001401  00000-0  13042-3 0  9997,2 49142  69.9991 218.1760 0002948 261.0800  99.0025 14.96711363 56636,6955.203,96.211,579.118,575.018,0.0
49142.0,STARLINK-3042,PAYLOAD,2022-09-16 06:27:19,14.96715117,0.000293,69.9993,217.5036,261.2373,98.8454,0.00016195,1.762e-05,0.0,0 STARLINK-3042,1 49142U 21082N   22259.26898135  .00001762  00000-0  16195-3 0  9996,2 49142  69.9993 217.5036 0002930 261.2373  98.8454 14.96715117 56673,6955.191,96.211,579.094,575.018,0.0
49142.0,STARLINK-3042,PAYLOAD,2022-09-17 03:18:26,14.96710361,0.0002953999999999,69.9993,215.3186,260.9105,99.1719,-3.3637e-05,-4.77e-06,0.0,0 STARLINK-3042,1 49142U 21082N   22260.13780415 -.00000477  00000-0 -33637-4 0  9990,2 49142  69.9993 215.3186 0002954 260.9105  99.1719 14.96710361 56809,6955.206,96.211,579.126,575.016,0.0
49142.0,STARLINK-3042,PAYLOAD,2022-09-17 06:30:54,14.96722062,0.0002986,69.9992,214.9824,259.7566,100.3255,-0.00030066,-3.532e-05,0.0,0 STARLINK-3042,1 49142U 21082N   22260.27146396 -.00003532  00000-0 -30066-3 0  9996,2 49142  69.9992 214.9824 0002986 259.7566 100.3255 14.96722062 56827,6955.17,96.21,579.112,574.9580000000002,0.0
49142.0,STARLINK-3042,PAYLOAD,2022-09-17 20:57:03,14.96707453,0.0002948999999999,69.9994,213.4697,259.9994,100.0832,0.00010219,1.078e-05,0.0,0 STARLINK-3042,1 49142U 21082N   22260.87295964  .00001078  00000-0  10219-3 0  9997,2 49142  69.9994 213.4697 0002949 259.9994 100.0832 14.96707453 56912,6955.215,96.211,579.131,575.029,0.0
49142.0,STARLINK-3042,PAYLOAD,2022-09-18 06:34:28,14.9671698,0.0002955,69.9995,212.4611,260.0353,100.0471,0.00012892,1.384e-05,0.0,0 STARLINK-3042,1 49142U 21082N   22261.27394595  .00001384  00000-0  12892-3 0  9991,2 49142  69.9995 212.4611 0002955 260.0353 100.0471 14.96716980 56977,6955.186,96.211,579.106,574.995,0.0
49142.0,STARLINK-3042,PAYLOAD,2022-09-18 21:00:37,14.96717083,0.0002942,69.9996,210.9484,259.7075,100.3752,0.0002678,2.975e-05,0.0,0 STARLINK-3042,1 49142U 21082N   22261.87543072  .00002975  00000-0  26780-3 0  9991,2 49142  69.9996 210.9484 0002942 259.7075 100.3752 14.96717083 57062,6955.185,96.211,579.096,575.004,0.0
49142.0,STARLINK-3042,PAYLOAD,2022-09-19 06:38:03,14.96716288,0.0002829,70.0005,209.94,261.7871,98.2966,0.00023125,2.556e-05,0.0,0 STARLINK-3042,1 49142U 21082N   22262.27642724  .00002556  00000-0  23125-3 0  9995,2 49142  70.0005 209.9400 0002829 261.7871  98.2966 14.96716288 57128,6955.188,96.211,579.02,575.085,0.0
49142.0,STARLINK-3042,PAYLOAD,2022-09-20 13:06:34,14.967224,0.0002731999999999,70.0008,206.7468,261.9239,98.1609,0.00010493,1.11e-05,0.0,0 STARLINK-3042,1 49142U 21082N   22263.54623035  .00001110  00000-0  10493-3 0  9999,2 49142  70.0008 206.7468 0002732 261.9239  98.1609 14.96722400 57310,6955.169,96.21,578.934,575.134,0.0
49142.0,STARLINK-3042,PAYLOAD,2022-09-21 19:35:05,14.96710071,0.0003177999999999,69.9999,203.5529,267.706,92.3734,4.9902e-05,4.8e-06,0.0,0 STARLINK-3042,1 49142U 21082N   22264.81604068  .00000480  00000-0  49902-4 0  9992,2 49142  69.9999 203.5529 0003178 267.7060  92.3734 14.96710071 57507,6955.206999999999,96.211,579.2819999999998,574.862,0.0
49142.0,STARLINK-3042,PAYLOAD,2022-09-22 02:00:03,14.96708929,0.0003167,70.0006,202.8817,259.7245,100.3557,3.2856e-05,2.84e-06,0.0,0 STARLINK-3042,1 49142U 21082N   22265.08336983  .00000284  00000-0  32856-4 0  9992,2 49142  70.0006 202.8817 0003167 259.7245 100.3557 14.96708929 57541,6955.21,96.211,579.278,574.873,0.0
49142.0,STARLINK-3042,PAYLOAD,2022-09-22 21:14:54,14.96718946,0.0002985,69.9997,200.8644,261.521,98.561,0.00016766,1.828e-05,0.0,0 STARLINK-3042,1 49142U 21082N   22265.88535085  .00001828  00000-0  16766-3 0  9990,2 49142  69.9997 200.8644 0002985 261.5210  98.5610 14.96718946 57664,6955.179,96.21,579.121,574.9680000000002,0.0
49142.0,STARLINK-3042,PAYLOAD,2022-09-23 13:17:17,14.96708317,0.0002836,70.0001,199.18400000000003,258.7633,101.3207,0.0001810999999999,1.981e-05,0.0,0 STARLINK-3042,1 49142U 21082N   22266.55367789  .00001981  00000-0  18110-3 0  9994,2 49142  70.0001 199.1840 0002836 258.7633 101.3207 14.96708317 57760,6955.212,96.211,579.05,575.105,0.0
49142.0,STARLINK-3042,PAYLOAD,2022-09-23 21:18:28,14.96716436,0.0003108,70.0013,198.3437,259.9881,100.0927,0.00024486,2.712e-05,0.0,0 STARLINK-3042,1 49142U 21082N   22266.88783264  .00002712  00000-0  24486-3 0  9996,2 49142  70.0013 198.3437 0003108 259.9881 100.0927 14.96716436 57819,6955.187,96.211,579.214,574.891,0.0
49142.0,STARLINK-3042,PAYLOAD,2022-09-24 05:19:39,14.96727635,0.0003137,70.0018,197.5027,258.6652,101.4154,0.00050822,5.732e-05,0.0,0 STARLINK-3042,1 49142U 21082N   22267.22198863  .00005732  00000-0  50822-3 0  9998,2 49142  70.0018 197.5027 0003137 258.6652 101.4154 14.96727635 57869,6955.151999999999,96.21,579.1990000000002,574.836,0.0
49142.0,STARLINK-3042,PAYLOAD,2022-09-24 13:20:50,14.96736965,0.0003156,70.0019,196.6622,258.0539,102.0265,0.00074448,8.445e-05,0.0,0 STARLINK-3042,1 49142U 21082N   22267.55614437  .00008445  00000-0  74448-3 0  9998,2 49142  70.0019 196.6622 0003156 258.0539 102.0265 14.96736965 57912,6955.124,96.209,579.184,574.794,0.0
49142.0,STARLINK-3042,PAYLOAD,2022-09-24 19:45:47,14.96738053,0.0003177,70.0021,195.99,257.6411,102.4392,0.00084609,9.612e-05,0.0,0 STARLINK-3042,1 49142U 21082N   22267.82347043  .00009612  00000-0  84609-3 0  9991,2 49142  70.0021 195.9900 0003177 257.6411 102.4392 14.96738053 57952,6955.12,96.209,579.195,574.776,0.0
49142.0,STARLINK-3042,PAYLOAD,2022-09-25 05:23:13,14.96730475,0.0003214,70.0019,194.9816,258.0539,102.0259,0.00036038,4.037e-05,0.0,0 STARLINK-3042,1 49142U 21082N   22268.22446070  .00004037  00000-0  36038-3 0  9995,2 49142  70.0019 194.9816 0003214 258.0539 102.0259 14.96730475 58018,6955.144,96.21,579.244,574.773,0.0
49142.0,STARLINK-3042,PAYLOAD,2022-09-25 19:49:21,14.96719891,0.0003255,70.0018,193.4691,257.7724,102.307,-1.4104e-05,-2.53e-06,0.0,0 STARLINK-3042,1 49142U 21082N   22268.82594892 -.00000253  00000-0 -14104-4 0  9996,2 49142  70.0018 193.4691 0003255 257.7724 102.3070 14.96719891 58102,6955.176,96.21,579.305,574.778,0.0
49142.0,STARLINK-3042,PAYLOAD,2022-09-26 05:26:48,14.96712072,0.0003005,70.0015,192.4606,256.4277,103.6546,-0.00010015,-1.238e-05,0.0,0 STARLINK-3042,1 49142U 21082N   22269.22694585 -.00001238  00000-0 -10015-3 0  9991,2 49142  70.0015 192.4606 0003005 256.4277 103.6546 14.96712072 58168,6955.201,96.211,579.156,574.976,0.0
49142.0,STARLINK-3042,PAYLOAD,2022-09-26 11:51:45,14.96708419,0.0002903,70.0023,191.7895,253.1633,106.9207,-0.00013205,-1.602e-05,0.0,0 STARLINK-3042,1 49142U 21082N   22269.49427700 -.00001602  00000-0 -13205-3 0  9992,2 49142  70.0023 191.7895 0002903 253.1633 106.9207 14.96708419 58200,6955.212,96.211,579.096,575.058,0.0
49142.0,STARLINK-3042,PAYLOAD,2022-09-27 03:54:08,14.96716426,0.0002942,70.0016,190.1081,255.7499,104.3332,0.00012744,1.367e-05,0.0,0 STARLINK-3042,1 49142U 21082N   22270.16259460  .00001367  00000-0  12744-3 0  9997,2 49142  70.0016 190.1081 0002942 255.7499 104.3332 14.96716426 58302,6955.187,96.211,579.0980000000002,575.006,0.0
49142.0,STARLINK-3042,PAYLOAD,2022-09-27 15:07:47,14.96721097,0.0002878,70.0012,188.9317,260.1238,99.9595,0.00012113,1.295e-05,0.0,0 STARLINK-3042,1 49142U 21082N   22270.63041625  .00001295  00000-0  12113-3 0  9991,2 49142  70.0012 188.9317 0002878 260.1238  99.9595 14.96721097 58371,6955.1730000000025,96.21,579.039,575.036,0.0
